SL-14 R/B               
1 21423U 91042B   26048.02717757  .00000462  00000+0  55458-4 0  9996
2 21423  82.4898 239.5619 0015914 312.7240  47.2633 14.81808489850017
ERS-1                   
1 21574U 91050A   26048.05245154  .00000373  00000+0  13419-3 0  9993
2 21574  98.7893  65.7678 0030874 263.2824  96.4849 14.39432669812764
ARIANE 40 R/B           
1 21610U 91050F   26048.15248133  .00000345  00000+0  11586-3 0  9997
2 21610  98.2058 101.1552 0004183 125.9888 234.1691 14.42878326816035
INTERCOSMOS 25          
1 21819U 91086A   26048.10022469  .00001222  00000+0  23479-3 0  9993
2 21819  82.6085 322.4501 1486950 161.2857 204.9516 12.11942596494196
SL-8 R/B                
1 21876U 92008B   26048.09111870  .00000068  00000+0  54655-4 0  9992
2 21876  82.9251 283.1034 0034342 190.1176 334.6906 13.75970098706581
SL-8 R/B                
1 21938U 92020B   26047.97679748  .00000097  00000+0  85053-4 0  9992
2 21938  82.9338 169.1350 0028742 358.3361 138.3936 13.75546689698285
USA 81                  
1 21949U 92023A   26048.19043727  .00000221  00000+0  74565-4 0  9999
2 21949  85.0116 143.2624 0002760  95.9623 264.1884 14.32360567 91852
COSMOS 2219             
1 22219U 92076A   26048.14835357  .00000215  00000+0  13776-3 0  9990
2 22219  71.0582  61.0104 0019942 234.7606 125.1651 14.14078541715476
SL-16 R/B               
1 22220U 92076B   26047.95801810 -.00000162  00000+0 -56970-4 0  9994
2 22220  70.9975 232.0436 0011187 134.0991  17.7614 14.16855003718894
COSMOS 2221             
1 22236U 92080A   26048.17217341  .00002134  00000+0  18720-3 0  9990
2 22236  82.5044 298.7330 0012797 261.9986  97.9784 14.96120543777728
SL-16 R/B               
1 22285U 92093B   26048.17449493  .00000311  00000+0  18377-3 0  9996
2 22285  71.0207  47.3325 0005478 316.0267  44.0419 14.15444072710250
COSMOS 2228             
1 22286U 92094A   26048.13514170  .00002225  00000+0  19014-3 0  9994
2 22286  82.5147 256.9942 0018441  15.6705 344.5084 14.97091355772983
