CCSDS_OMM_VERS = 2.0
CREATION_DATE  = 
ORIGINATOR     = 

OBJECT_NAME    = SL-14 R/B
OBJECT_ID      = 1991-042B
CENTER_NAME    = EARTH
REF_FRAME      = TEME
TIME_SYSTEM    = UTC
MEAN_ELEMENT_THEORY = SGP/SGP4

EPOCH          = 2026-02-17T00:39:08.142048
MEAN_MOTION    = 14.81808489
ECCENTRICITY   = .0015914
INCLINATION    = 82.4898
RA_OF_ASC_NODE = 239.5619
ARG_OF_PERICENTER = 312.7240
MEAN_ANOMALY   = 47.2633

EPHEMERIS_TYPE = 0
CLASSIFICATION_TYPE = U
NORAD_CAT_ID   = 21423
ELEMENT_SET_NO = 999
REV_AT_EPOCH   = 85001
BSTAR          = .55458E-4
MEAN_MOTION_DOT = .462E-5
MEAN_MOTION_DDOT = 0

CCSDS_OMM_VERS = 2.0
CREATION_DATE  = 
ORIGINATOR     = 

OBJECT_NAME    = ERS-1
OBJECT_ID      = 1991-050A
CENTER_NAME    = EARTH
REF_FRAME      = TEME
TIME_SYSTEM    = UTC
MEAN_ELEMENT_THEORY = SGP/SGP4

EPOCH          = 2026-02-17T01:15:31.813056
MEAN_MOTION    = 14.39432669
ECCENTRICITY   = .0030874
INCLINATION    = 98.7893
RA_OF_ASC_NODE = 65.7678
ARG_OF_PERICENTER = 263.2824
MEAN_ANOMALY   = 96.4849

EPHEMERIS_TYPE = 0
CLASSIFICATION_TYPE = U
NORAD_CAT_ID   = 21574
ELEMENT_SET_NO = 999
REV_AT_EPOCH   = 81276
BSTAR          = .13419E-3
MEAN_MOTION_DOT = .373E-5
MEAN_MOTION_DDOT = 0

CCSDS_OMM_VERS = 2.0
CREATION_DATE  = 
ORIGINATOR     = 

OBJECT_NAME    = ARIANE 40 R/B
OBJECT_ID      = 1991-050F
CENTER_NAME    = EARTH
REF_FRAME      = TEME
TIME_SYSTEM    = UTC
MEAN_ELEMENT_THEORY = SGP/SGP4

EPOCH          = 2026-02-17T03:39:34.386912
MEAN_MOTION    = 14.42878326
ECCENTRICITY   = .0004183
INCLINATION    = 98.2058
RA_OF_ASC_NODE = 101.1552
ARG_OF_PERICENTER = 125.9888
MEAN_ANOMALY   = 234.1691

EPHEMERIS_TYPE = 0
CLASSIFICATION_TYPE = U
NORAD_CAT_ID   = 21610
ELEMENT_SET_NO = 999
REV_AT_EPOCH   = 81603
BSTAR          = .11586E-3
MEAN_MOTION_DOT = .345E-5
MEAN_MOTION_DDOT = 0

CCSDS_OMM_VERS = 2.0
CREATION_DATE  = 
ORIGINATOR     = 

OBJECT_NAME    = INTERCOSMOS 25
OBJECT_ID      = 1991-086A
CENTER_NAME    = EARTH
REF_FRAME      = TEME
TIME_SYSTEM    = UTC
MEAN_ELEMENT_THEORY = SGP/SGP4

EPOCH          = 2026-02-17T02:24:19.413216
MEAN_MOTION    = 12.11942596
ECCENTRICITY   = .148695
INCLINATION    = 82.6085
RA_OF_ASC_NODE = 322.4501
ARG_OF_PERICENTER = 161.2857
MEAN_ANOMALY   = 204.9516

EPHEMERIS_TYPE = 0
CLASSIFICATION_TYPE = U
NORAD_CAT_ID   = 21819
ELEMENT_SET_NO = 999
REV_AT_EPOCH   = 49419
BSTAR          = .23479E-3
MEAN_MOTION_DOT = .1222E-4
MEAN_MOTION_DDOT = 0

CCSDS_OMM_VERS = 2.0
CREATION_DATE  = 
ORIGINATOR     = 

OBJECT_NAME    = SL-8 R/B
OBJECT_ID      = 1992-008B
CENTER_NAME    = EARTH
REF_FRAME      = TEME
TIME_SYSTEM    = UTC
MEAN_ELEMENT_THEORY = SGP/SGP4

EPOCH          = 2026-02-17T02:11:12.655680
MEAN_MOTION    = 13.75970098
ECCENTRICITY   = .0034342
INCLINATION    = 82.9251
RA_OF_ASC_NODE = 283.1034
ARG_OF_PERICENTER = 190.1176
MEAN_ANOMALY   = 334.6906

EPHEMERIS_TYPE = 0
CLASSIFICATION_TYPE = U
NORAD_CAT_ID   = 21876
ELEMENT_SET_NO = 999
REV_AT_EPOCH   = 70658
BSTAR          = .54655E-4
MEAN_MOTION_DOT = .68E-6
MEAN_MOTION_DDOT = 0

CCSDS_OMM_VERS = 2.0
CREATION_DATE  = 
ORIGINATOR     = 

OBJECT_NAME    = SL-8 R/B
OBJECT_ID      = 1992-020B
CENTER_NAME    = EARTH
REF_FRAME      = TEME
TIME_SYSTEM    = UTC
MEAN_ELEMENT_THEORY = SGP/SGP4

EPOCH          = 2026-02-16T23:26:35.302272
MEAN_MOTION    = 13.75546689
ECCENTRICITY   = .0028742
INCLINATION    = 82.9338
RA_OF_ASC_NODE = 169.1350
ARG_OF_PERICENTER = 358.3361
MEAN_ANOMALY   = 138.3936

EPHEMERIS_TYPE = 0
CLASSIFICATION_TYPE = U
NORAD_CAT_ID   = 21938
ELEMENT_SET_NO = 999
REV_AT_EPOCH   = 69828
BSTAR          = .85053E-4
MEAN_MOTION_DOT = .97E-6
MEAN_MOTION_DDOT = 0

CCSDS_OMM_VERS = 2.0
CREATION_DATE  = 
ORIGINATOR     = 

OBJECT_NAME    = USA 81
OBJECT_ID      = 1992-023A
CENTER_NAME    = EARTH
REF_FRAME      = TEME
TIME_SYSTEM    = UTC
MEAN_ELEMENT_THEORY = SGP/SGP4

EPOCH          = 2026-02-17T04:34:13.780128
MEAN_MOTION    = 14.32360567
ECCENTRICITY   = .000276
INCLINATION    = 85.0116
RA_OF_ASC_NODE = 143.2624
ARG_OF_PERICENTER = 95.9623
MEAN_ANOMALY   = 264.1884

EPHEMERIS_TYPE = 0
CLASSIFICATION_TYPE = U
NORAD_CAT_ID   = 21949
ELEMENT_SET_NO = 999
REV_AT_EPOCH   = 9185
BSTAR          = .74565E-4
MEAN_MOTION_DOT = .221E-5
MEAN_MOTION_DDOT = 0

CCSDS_OMM_VERS = 2.0
CREATION_DATE  = 
ORIGINATOR     = 

OBJECT_NAME    = COSMOS 2219
OBJECT_ID      = 1992-076A
CENTER_NAME    = EARTH
REF_FRAME      = TEME
TIME_SYSTEM    = UTC
MEAN_ELEMENT_THEORY = SGP/SGP4

EPOCH          = 2026-02-17T03:33:37.748448
MEAN_MOTION    = 14.14078541
ECCENTRICITY   = .0019942
INCLINATION    = 71.0582
RA_OF_ASC_NODE = 61.0104
ARG_OF_PERICENTER = 234.7606
MEAN_ANOMALY   = 125.1651

EPHEMERIS_TYPE = 0
CLASSIFICATION_TYPE = U
NORAD_CAT_ID   = 22219
ELEMENT_SET_NO = 999
REV_AT_EPOCH   = 71547
BSTAR          = .13776E-3
MEAN_MOTION_DOT = .215E-5
MEAN_MOTION_DDOT = 0

CCSDS_OMM_VERS = 2.0
CREATION_DATE  = 
ORIGINATOR     = 

OBJECT_NAME    = SL-16 R/B
OBJECT_ID      = 1992-076B
CENTER_NAME    = EARTH
REF_FRAME      = TEME
TIME_SYSTEM    = UTC
MEAN_ELEMENT_THEORY = SGP/SGP4

EPOCH          = 2026-02-16T22:59:32.763840
MEAN_MOTION    = 14.16855003
ECCENTRICITY   = .0011187
INCLINATION    = 70.9975
RA_OF_ASC_NODE = 232.0436
ARG_OF_PERICENTER = 134.0991
MEAN_ANOMALY   = 17.7614

EPHEMERIS_TYPE = 0
CLASSIFICATION_TYPE = U
NORAD_CAT_ID   = 22220
ELEMENT_SET_NO = 999
REV_AT_EPOCH   = 71889
BSTAR          = -.5697E-4
MEAN_MOTION_DOT = -.162E-5
MEAN_MOTION_DDOT = 0

CCSDS_OMM_VERS = 2.0
CREATION_DATE  = 
ORIGINATOR     = 

OBJECT_NAME    = COSMOS 2221
OBJECT_ID      = 1992-080A
CENTER_NAME    = EARTH
REF_FRAME      = TEME
TIME_SYSTEM    = UTC
MEAN_ELEMENT_THEORY = SGP/SGP4

EPOCH          = 2026-02-17T04:07:55.782624
MEAN_MOTION    = 14.96120543
ECCENTRICITY   = .0012797
INCLINATION    = 82.5044
RA_OF_ASC_NODE = 298.7330
ARG_OF_PERICENTER = 261.9986
MEAN_ANOMALY   = 97.9784

EPHEMERIS_TYPE = 0
CLASSIFICATION_TYPE = U
NORAD_CAT_ID   = 22236
ELEMENT_SET_NO = 999
REV_AT_EPOCH   = 77772
BSTAR          = .1872E-3
MEAN_MOTION_DOT = .2134E-4
MEAN_MOTION_DDOT = 0

CCSDS_OMM_VERS = 2.0
CREATION_DATE  = 
ORIGINATOR     = 

OBJECT_NAME    = SL-16 R/B
OBJECT_ID      = 1992-093B
CENTER_NAME    = EARTH
REF_FRAME      = TEME
TIME_SYSTEM    = UTC
MEAN_ELEMENT_THEORY = SGP/SGP4

EPOCH          = 2026-02-17T04:11:16.361952
MEAN_MOTION    = 14.15444072
ECCENTRICITY   = .0005478
INCLINATION    = 71.0207
RA_OF_ASC_NODE = 47.3325
ARG_OF_PERICENTER = 316.0267
MEAN_ANOMALY   = 44.0419

EPHEMERIS_TYPE = 0
CLASSIFICATION_TYPE = U
NORAD_CAT_ID   = 22285
ELEMENT_SET_NO = 999
REV_AT_EPOCH   = 71025
BSTAR          = .18377E-3
MEAN_MOTION_DOT = .311E-5
MEAN_MOTION_DDOT = 0

CCSDS_OMM_VERS = 2.0
CREATION_DATE  = 
ORIGINATOR     = 

OBJECT_NAME    = COSMOS 2228
OBJECT_ID      = 1992-094A
CENTER_NAME    = EARTH
REF_FRAME      = TEME
TIME_SYSTEM    = UTC
MEAN_ELEMENT_THEORY = SGP/SGP4

EPOCH          = 2026-02-17T03:14:36.242880
MEAN_MOTION    = 14.97091355
ECCENTRICITY   = .0018441
INCLINATION    = 82.5147
RA_OF_ASC_NODE = 256.9942
ARG_OF_PERICENTER = 15.6705
MEAN_ANOMALY   = 344.5084

EPHEMERIS_TYPE = 0
CLASSIFICATION_TYPE = U
NORAD_CAT_ID   = 22286
ELEMENT_SET_NO = 999
REV_AT_EPOCH   = 77298
BSTAR          = .19014E-3
MEAN_MOTION_DOT = .2225E-4
MEAN_MOTION_DDOT = 0

